{
  "type": "FeatureCollection",
  "features": [
    {
      "type": "Feature",
      "properties": {
        "norad_id": 58701,
        "name": "TIANMU-1 16",
        "group": "weather",
        "lat": 72.4598616793892,
        "lon": 18.92225689379308,
        "alt_km": 488.052801035009,
        "timestamp": "2025-12-19T14:48:35.887113+00:00",
        "meta_object_name": "TIANMU-1 16",
        "meta_object_id": "2024-004B",
        "meta_epoch": "2025-12-19T06:28:13.751040",
        "meta_mean_motion": 15.24516126,
        "meta_eccentricity": 0.00043097,
        "meta_inclination": 97.4561,
        "meta_ra_of_asc_node": 174.0978,
        "meta_arg_of_pericenter": 266.5754,
        "meta_mean_anomaly": 93.4991,
        "meta_ephemeris_type": 0,
        "meta_classification_type": "U",
        "meta_norad_cat_id": 58701,
        "meta_element_set_no": 999,
        "meta_rev_at_epoch": 10834,
        "meta_bstar": 0.00021423783,
        "meta_mean_motion_dot": 5.198e-05,
        "meta_mean_motion_ddot": 0,
        "tle_line1": "1 58701U 24004B   25353.26960360  .00005198  00000+0  21424-3 0  9999",
        "tle_line2": "2 58701  97.4561 174.0978 0004309 266.5754  93.4991 15.24516126108346"
      },
      "geometry": {
        "type": "Point",
        "coordinates": [
          18.92225689379308,
          72.4598616793892
        ]
      }
    },
    {
      "type": "Feature",
      "properties": {
        "norad_id": 58702,
        "name": "TIANMU-1 17",
        "group": "weather",
        "lat": -11.472684737241437,
        "lon": -6.666582877091735,
        "alt_km": 495.96095671181683,
        "timestamp": "2025-12-19T14:48:35.887123+00:00",
        "meta_object_name": "TIANMU-1 17",
        "meta_object_id": "2024-004C",
        "meta_epoch": "2025-12-19T07:40:17.503392",
        "meta_mean_motion": 15.24560421,
        "meta_eccentricity": 0.00034936,
        "meta_inclination": 97.4595,
        "meta_ra_of_asc_node": 174.5611,
        "meta_arg_of_pericenter": 268.2425,
        "meta_mean_anomaly": 91.8412,
        "meta_ephemeris_type": 0,
        "meta_classification_type": "U",
        "meta_norad_cat_id": 58702,
        "meta_element_set_no": 999,
        "meta_rev_at_epoch": 10834,
        "meta_bstar": 0.00021875578,
        "meta_mean_motion_dot": 5.316e-05,
        "meta_mean_motion_ddot": 0,
        "tle_line1": "1 58702U 24004C   25353.31964703  .00005316  00000+0  21876-3 0  9994",
        "tle_line2": "2 58702  97.4595 174.5611 0003493 268.2425  91.8412 15.24560421108347"
      },
      "geometry": {
        "type": "Point",
        "coordinates": [
          -6.666582877091735,
          -11.472684737241437
        ]
      }
    },
    {
      "type": "Feature",
      "properties": {
        "norad_id": 58703,
        "name": "TIANMU-1 18",
        "group": "weather",
        "lat": -75.34852965031803,
        "lon": -154.86161105534575,
        "alt_km": 497.5975336466472,
        "timestamp": "2025-12-19T14:48:35.887133+00:00",
        "meta_object_name": "TIANMU-1 18",
        "meta_object_id": "2024-004D",
        "meta_epoch": "2025-12-19T07:16:21.125856",
        "meta_mean_motion": 15.24545553,
        "meta_eccentricity": 0.00028682,
        "meta_inclination": 97.4611,
        "meta_ra_of_asc_node": 174.7412,
        "meta_arg_of_pericenter": 266.7139,
        "meta_mean_anomaly": 93.377,
        "meta_ephemeris_type": 0,
        "meta_classification_type": "U",
        "meta_norad_cat_id": 58703,
        "meta_element_set_no": 999,
        "meta_rev_at_epoch": 10834,
        "meta_bstar": 0.00020148002,
        "meta_mean_motion_dot": 4.888e-05,
        "meta_mean_motion_ddot": 0,
        "tle_line1": "1 58703U 24004D   25353.30302229  .00004888  00000+0  20148-3 0  9997",
        "tle_line2": "2 58703  97.4611 174.7412 0002868 266.7139  93.3770 15.24545553108341"
      },
      "geometry": {
        "type": "Point",
        "coordinates": [
          -154.86161105534575,
          -75.34852965031803
        ]
      }
    },
    {
      "type": "Feature",
      "properties": {
        "norad_id": 58990,
        "name": "INSAT-3DS",
        "group": "weather",
        "lat": -0.022676924432720697,
        "lon": 32.71443021295026,
        "alt_km": 35788.4055927625,
        "timestamp": "2025-12-19T14:48:35.887144+00:00",
        "meta_object_name": "INSAT-3DS",
        "meta_object_id": "2024-033A",
        "meta_epoch": "2025-12-18T15:23:52.092960",
        "meta_mean_motion": 1.00272396,
        "meta_eccentricity": 0.00010988,
        "meta_inclination": 0.0507,
        "meta_ra_of_asc_node": 110.1825,
        "meta_arg_of_pericenter": 160.7703,
        "meta_mean_anomaly": 129.6153,
        "meta_ephemeris_type": 0,
        "meta_classification_type": "U",
        "meta_norad_cat_id": 58990,
        "meta_element_set_no": 999,
        "meta_rev_at_epoch": 4525,
        "meta_bstar": 0,
        "meta_mean_motion_dot": -1.31e-06,
        "meta_mean_motion_ddot": 0,
        "tle_line1": "1 58990U 24033A   25352.64157515 -.00000131  00000+0  00000+0 0  9998",
        "tle_line2": "2 58990   0.0507 110.1825 0001098 160.7703 129.6153  1.00272396 45258"
      },
      "geometry": {
        "type": "Point",
        "coordinates": [
          32.71443021295026,
          -0.022676924432720697
        ]
      }
    },
    {
      "type": "Feature",
      "properties": {
        "norad_id": 59051,
        "name": "METEOR-M2 4",
        "group": "weather",
        "lat": 80.57098559017594,
        "lon": -162.71415670697814,
        "alt_km": 811.8548311813238,
        "timestamp": "2025-12-19T14:48:35.887155+00:00",
        "meta_object_name": "METEOR-M2 4",
        "meta_object_id": "2024-039A",
        "meta_epoch": "2025-12-19T07:37:06.320064",
        "meta_mean_motion": 14.22402252,
        "meta_eccentricity": 0.00066843,
        "meta_inclination": 98.6775,
        "meta_ra_of_asc_node": 310.1234,
        "meta_arg_of_pericenter": 339.2893,
        "meta_mean_anomaly": 20.8013,
        "meta_ephemeris_type": 0,
        "meta_classification_type": "U",
        "meta_norad_cat_id": 59051,
        "meta_element_set_no": 999,
        "meta_rev_at_epoch": 9369,
        "meta_bstar": 2.0209786e-05,
        "meta_mean_motion_dot": 1e-08,
        "meta_mean_motion_ddot": 0,
        "tle_line1": "1 59051U 24039A   25353.31743426  .00000001  00000+0  20210-4 0  9995",
        "tle_line2": "2 59051  98.6775 310.1234 0006684 339.2893  20.8013 14.22402252 93694"
      },
      "geometry": {
        "type": "Point",
        "coordinates": [
          -162.71415670697814,
          80.57098559017594
        ]
      }
    },
    {
      "type": "Feature",
      "properties": {
        "norad_id": 60133,
        "name": "GOES 19",
        "group": "weather",
        "lat": -0.002072159841791519,
        "lon": -124.5990152888455,
        "alt_km": 35786.128813637995,
        "timestamp": "2025-12-19T14:48:35.887167+00:00",
        "meta_object_name": "GOES 19",
        "meta_object_id": "2024-119A",
        "meta_epoch": "2025-12-19T06:03:30.680352",
        "meta_mean_motion": 1.00271302,
        "meta_eccentricity": 0.00010607,
        "meta_inclination": 0.0102,
        "meta_ra_of_asc_node": 99.8714,
        "meta_arg_of_pericenter": 224.193,
        "meta_mean_anomaly": 139.7289,
        "meta_ephemeris_type": 0,
        "meta_classification_type": "U",
        "meta_norad_cat_id": 60133,
        "meta_element_set_no": 999,
        "meta_rev_at_epoch": 516,
        "meta_bstar": 0,
        "meta_mean_motion_dot": -2.24e-06,
        "meta_mean_motion_ddot": 0,
        "tle_line1": "1 60133U 24119A   25353.25243843 -.00000224  00000+0  00000+0 0  9996",
        "tle_line2": "2 60133   0.0102  99.8714 0001060 224.1930 139.7289  1.00271302  5161"
      },
      "geometry": {
        "type": "Point",
        "coordinates": [
          -124.5990152888455,
          -0.002072159841791519
        ]
      }
    },
    {
      "type": "Feature",
      "properties": {
        "norad_id": 65815,
        "name": "FENGYUN 3H",
        "group": "weather",
        "lat": -81.29973062762598,
        "lon": 17.838031532535172,
        "alt_km": 833.5032968139421,
        "timestamp": "2025-12-19T14:48:35.887177+00:00",
        "meta_object_name": "FENGYUN 3H",
        "meta_object_id": "2025-219A",
        "meta_epoch": "2025-12-19T06:46:25.041792",
        "meta_mean_motion": 14.19906352,
        "meta_eccentricity": 7.122e-05,
        "meta_inclination": 98.6593,
        "meta_ra_of_asc_node": 292.7307,
        "meta_arg_of_pericenter": 103.8815,
        "meta_mean_anomaly": 256.2441,
        "meta_ephemeris_type": 0,
        "meta_classification_type": "U",
        "meta_norad_cat_id": 65815,
        "meta_element_set_no": 999,
        "meta_rev_at_epoch": 1185,
        "meta_bstar": 3.9521052e-05,
        "meta_mean_motion_dot": 4.1e-07,
        "meta_mean_motion_ddot": 0,
        "tle_line1": "1 65815U 25219A   25353.28223428  .00000041  00000+0  39521-4 0  9991",
        "tle_line2": "2 65815  98.6593 292.7307 0000712 103.8815 256.2441 14.19906352 11852"
      },
      "geometry": {
        "type": "Point",
        "coordinates": [
          17.838031532535172,
          -81.29973062762598
        ]
      }
    }
  ]
}